{"fetched_at":"2026-03-29T02:12:04Z","count":15717,"tles":[{"name":"GPS BIII-5  (PRN 11)","line1":"1 48859U 21054A   26085.92660022 -.00000086  00000+0  00000+0 0  9997","line2":"2 48859  55.2106 335.7679 0023833 231.2619 258.6260  2.00573998 35109","category":"GPS"}]}